NORAD_CAT_ID,OBJECT_NAME,OBJECT_TYPE,EPOCH,MEAN_MOTION,ECCENTRICITY,INCLINATION,RA_OF_ASC_NODE,ARG_OF_PERICENTER,MEAN_ANOMALY,BSTAR,MEAN_MOTION_DOT,MEAN_MOTION_DDOT,TLE_LINE0,TLE_LINE1,TLE_LINE2,SEMIMAJOR_AXIS,PERIOD,APOGEE,PERIGEE,DECAYED
51783.0,STARLINK-3628,PAYLOAD,2022-08-09 14:00:01,15.08805857,0.0001971,53.2179,91.4325,65.8693,182.6348,0.0021875,0.00034665,0.0,0 STARLINK-3628,1 51783U 22017R   22221.58334491  .00034665  00000-0  21875-2 0  9991,2 51783  53.2179  91.4325 0001971  65.8693 182.6348 15.08805857 26582,6917.985,95.44,541.2130000000002,538.486,0.0
51783.0,STARLINK-3628,PAYLOAD,2022-08-09 22:00:00,15.08818787,0.0002048,53.2178,89.93799999999996,60.4853,199.5891,-0.0020675,-0.00033024,0.0,0 STARLINK-3628,1 51783U 22017R   22221.91667824 -.00033024  00000-0 -20675-2 0  9994,2 51783  53.2178  89.9380 0002048  60.4853 199.5891 15.08818787  1308,6917.945,95.439,541.227,538.393,0.0
51783.0,STARLINK-3628,PAYLOAD,2022-08-10 06:00:00,15.08820974,0.0001965,53.2174,88.4413,59.9826,211.6427,-0.0015702,-0.00025178,0.0,0 STARLINK-3628,1 51783U 22017R   22222.25001157 -.00025178  00000-0 -15702-2 0  9999,2 51783  53.2174  88.4413 0001965  59.9826 211.6427 15.08820974 26685,6917.939,95.439,541.163,538.444,0.0
51783.0,STARLINK-3628,PAYLOAD,2022-08-10 14:00:01,15.08797994,0.0001898,53.2175,86.9438,67.0989,216.0879,0.0024153,0.00038317,0.0,0 STARLINK-3628,1 51783U 22017R   22222.58334491  .00038317  00000-0  24153-2 0  9992,2 51783  53.2175  86.9438 0001898  67.0989 216.0879 15.08797994  1308,6918.009,95.44,541.187,538.561,0.0
51783.0,STARLINK-3628,PAYLOAD,2022-08-10 22:00:00,15.08814723,0.0002037,53.2172,85.4494,62.0131,232.7347,-4.0469e-05,-9.32e-06,0.0,0 STARLINK-3628,1 51783U 22017R   22222.91667824 -.00000932  00000-0 -40469-4 0  9992,2 51783  53.2172  85.4494 0002037  62.0131 232.7347 15.08814723  1306,6917.958000000001,95.439,541.232,538.413,0.0
51783.0,STARLINK-3628,PAYLOAD,2022-08-11 14:00:01,15.08816742,0.0001937,53.2169,82.4549,69.118,248.7701,0.0022024,0.00034915,0.0,0 STARLINK-3628,1 51783U 22017R   22223.58334491  .00034915  00000-0  22024-2 0  9998,2 51783  53.2169  82.4549 0001937  69.1180 248.7701 15.08816742  1304,6917.951,95.439,541.156,538.476,0.0
51783.0,STARLINK-3628,PAYLOAD,2022-08-11 22:00:00,15.08829907,0.0002076,53.2167,80.9603,63.3571,266.11400000000003,0.00024895,3.675e-05,0.0,0 STARLINK-3628,1 51783U 22017R   22223.91667824  .00003675  00000-0  24895-3 0  9992,2 51783  53.2167  80.9603 0002076  63.3571 266.1140 15.08829907 26935,6917.911,95.438,541.212,538.34,0.0
51783.0,STARLINK-3628,PAYLOAD,2022-08-12 14:00:01,15.08842408,0.0001985,53.2165,77.9656,69.6145,283.0456,0.0021795,0.00034572,0.0,0 STARLINK-3628,1 51783U 22017R   22224.58334491  .00034572  00000-0  21795-2 0  9992,2 51783  53.2165  77.9656 0001985  69.6145 283.0456 15.08842408  1304,6917.873000000001,95.437,541.111,538.365,0.0
51783.0,STARLINK-3628,PAYLOAD,2022-08-12 22:00:01,15.08851977,0.0002109999999999,53.2165,76.4708,63.5167,300.8164,0.0003763,5.708e-05,0.0,0 STARLINK-3628,1 51783U 22017R   22224.91668981  .00005708  00000-0  37630-3 0  9998,2 51783  53.2165  76.4708 0002110  63.5167 300.8164 15.08851977 27082,6917.844,95.437,541.168,538.249,0.0
51783.0,STARLINK-3628,PAYLOAD,2022-08-13 14:00:01,15.08835317,0.0001936,53.2166,73.4759,68.5813,318.9067,0.0016518,0.00026095,0.0,0 STARLINK-3628,1 51783U 22017R   22225.58334491  .00026095  00000-0  16518-2 0  9991,2 51783  53.2166  73.4759 0001936  68.5813 318.9067 15.08835317  1303,6917.895,95.438,541.099,538.42,0.0
51783.0,STARLINK-3628,PAYLOAD,2022-08-13 22:00:00,15.088444699999998,0.0002049,53.2167,71.9812,62.2061,336.8841,4.5133e-05,4.3e-06,0.0,0 STARLINK-3628,1 51783U 22017R   22225.91667824  .00000430  00000-0  45133-4 0  9999,2 51783  53.2167  71.9812 0002049  62.2061 336.8841 15.08844470  1308,6917.8669999999975,95.437,541.149,538.314,0.0
51783.0,STARLINK-3628,PAYLOAD,2022-08-14 14:00:01,15.08834334,0.0001881,53.2171,68.9863,67.3265,354.9544,0.0012933,0.00020352,0.0,0 STARLINK-3628,1 51783U 22017R   22226.58334491  .00020352  00000-0  12933-2 0  9999,2 51783  53.2171  68.9863 0001881  67.3265 354.9544 15.08834334  1309,6917.898,95.438,541.064,538.461,0.0
51783.0,STARLINK-3628,PAYLOAD,2022-08-14 22:00:00,15.08831753,0.0002002,53.2173,67.4916,60.8871,12.9895,0.00099913,0.00015645,0.0,0 STARLINK-3628,1 51783U 22017R   22226.91667824  .00015645  00000-0  99913-3 0  9998,2 51783  53.2173  67.4916 0002002  60.8871  12.9895 15.08831753  1303,6917.906,95.438,541.156,538.386,0.0
51783.0,STARLINK-3628,PAYLOAD,2022-08-15 00:00:00,15.08823216,0.0001979,53.2173,67.1176,59.1996,107.578,0.0022785,0.00036144,0.0,0 STARLINK-3628,1 51783U 22017R   22227.00001157  .00036144  00000-0  22785-2 0  9999,2 51783  53.2173  67.1176 0001979  59.1996 107.5780 15.08823216 27407,6917.932,95.439,541.1659999999998,538.428,0.0
51783.0,STARLINK-3628,PAYLOAD,2022-08-15 14:00:01,15.08828138,0.0001806,53.2178,64.497,66.6389,30.4142,0.00064386,9.971e-05,0.0,0 STARLINK-3628,1 51783U 22017R   22227.58334491  .00009971  00000-0  64386-3 0  9994,2 51783  53.2178  64.4970 0001806  66.6389  30.4142 15.08828138  1307,6917.917,95.438,541.031,538.5319999999998,0.0
51783.0,STARLINK-3628,PAYLOAD,2022-08-15 16:00:00,15.08841231,0.0001823,53.2179,64.1235,65.0805,124.8651,-0.0011607999999999,-0.00018716,0.0,0 STARLINK-3628,1 51783U 22017R   22227.66667824 -.00018716  00000-0 -11608-2 0  9999,2 51783  53.2179  64.1235 0001823  65.0805 124.8651 15.08841231 27506,6917.877,95.437,541.003,538.48,0.0
51783.0,STARLINK-3628,PAYLOAD,2022-08-15 22:00:00,15.08817828,0.0001921,53.2179,63.0024,60.1211,48.5207,0.0016069,0.00025363,0.0,0 STARLINK-3628,1 51783U 22017R   22227.91667824  .00025363  00000-0  16069-2 0  9997,2 51783  53.2179  63.0024 0001921  60.1211  48.5207 15.08817828  1300,6917.948,95.439,541.1419999999998,538.484,0.0
51783.0,STARLINK-3628,PAYLOAD,2022-08-16 14:00:01,15.0885043,0.0001799,53.2183,60.008,67.9176,63.8953,0.00020102,2.913e-05,0.0,0 STARLINK-3628,1 51783U 22017R   22228.58334491  .00002913  00000-0  20102-3 0  9992,2 51783  53.2183  60.0080 0001799  67.9176  63.8953 15.08850430  1306,6917.849,95.437,540.9580000000002,538.469,0.0
51783.0,STARLINK-3628,PAYLOAD,2022-08-16 22:00:00,15.08838785,0.0001869,53.2182,58.5134,60.3678,83.0565,0.0010181,0.00015952,0.0,0 STARLINK-3628,1 51783U 22017R   22228.91667824  .00015952  00000-0  10181-2 0  9990,2 51783  53.2182  58.5134 0001869  60.3678  83.0565 15.08838785  1301,6917.884,95.438,541.0419999999998,538.456,0.0
51783.0,STARLINK-3628,PAYLOAD,2022-08-17 14:00:01,15.08841432,0.0001664,53.2184,55.5193,68.1355,98.4728,-0.00032906,-5.521e-05,0.0,0 STARLINK-3628,1 51783U 22017R   22229.58334491 -.00005521  00000-0 -32906-3 0  9998,2 51783  53.2184  55.5193 0001664  68.1355  98.4728 15.08841432 27791,6917.876,95.437,540.8919999999998,538.59,0.0
51783.0,STARLINK-3628,PAYLOAD,2022-08-17 16:00:00,15.08847996,0.0001678,53.2184,55.1456,66.0667,193.4387,-0.0014618,-0.00023482,0.0,0 STARLINK-3628,1 51783U 22017R   22229.66667824 -.00023482  00000-0 -14618-2 0  9991,2 51783  53.2184  55.1456 0001678  66.0667 193.4387 15.08847996  1304,6917.856,95.437,540.882,538.56,0.0
51783.0,STARLINK-3628,PAYLOAD,2022-08-18 14:00:01,15.08865429,0.0001641999999999,53.2181,51.0307,68.7315,132.6604,-0.00046231,-7.643e-05,0.0,0 STARLINK-3628,1 51783U 22017R   22230.58334491 -.00007643  00000-0 -46231-3 0  9993,2 51783  53.2181  51.0307 0001642  68.7315 132.6604 15.08865429  1309,6917.803000000001,95.436,540.804,538.5319999999998,0.0
51783.0,STARLINK-3628,PAYLOAD,2022-08-18 22:00:00,15.08850919,0.0001744,53.2179,49.5356,60.2177,152.8003,-0.00080051,-0.0001301,0.0,0 STARLINK-3628,1 51783U 22017R   22230.91667824 -.00013010  00000-0 -80051-3 0  9992,2 51783  53.2179  49.5356 0001744  60.2177 152.8003 15.08850919 27996,6917.847,95.437,540.918,538.506,0.0
51783.0,STARLINK-3628,PAYLOAD,2022-08-19 06:00:00,15.08753516,0.0001692,53.2178,48.0366,62.2896,162.3547,0.0037436999999999,0.00059656,0.0,0 STARLINK-3628,1 51783U 22017R   22231.25001157  .00059656  00000-0  37437-2 0  9994,2 51783  53.2178  48.0366 0001692  62.2896 162.3547 15.08753516 28043,6918.145,95.443,541.18,538.839,0.0
51783.0,STARLINK-3628,PAYLOAD,2022-08-19 14:00:01,15.08828824,0.0001666999999999,53.2178,46.542,68.882,167.2368,-0.0007124,-0.00011605,0.0,0 STARLINK-3628,1 51783U 22017R   22231.58334491 -.00011605  00000-0 -71240-3 0  9995,2 51783  53.2178  46.5420 0001667  68.8820 167.2368 15.08828824  1308,6917.915,95.438,540.933,538.626,0.0
51783.0,STARLINK-3628,PAYLOAD,2022-08-19 22:00:00,15.08799123,0.0001758,53.2177,45.0472,60.5828,187.1172,0.0032189,0.00051256,0.0,0 STARLINK-3628,1 51783U 22017R   22231.91667824  .00051256  00000-0  32189-2 0  9993,2 51783  53.2177  45.0472 0001758  60.5828 187.1172 15.08799123 28140,6918.005,95.44,541.087,538.654,0.0
51783.0,STARLINK-3628,PAYLOAD,2022-08-20 14:00:01,15.08847882,0.000171,53.2177,42.0532,67.9198,202.9224,-0.00093086,-0.00015075,0.0,0 STARLINK-3628,1 51783U 22017R   22232.58334491 -.00015075  00000-0 -93086-3 0  9993,2 51783  53.2177  42.0532 0001710  67.9198 202.9224 15.08847882  1302,6917.856,95.437,540.904,538.538,0.0
51783.0,STARLINK-3628,PAYLOAD,2022-08-20 16:00:00,15.08849199,0.0001745,53.2176,41.6796,65.0117,298.7298,-0.0014231,-0.00022871,0.0,0 STARLINK-3628,1 51783U 22017R   22232.66667824 -.00022871  00000-0 -14231-2 0  9997,2 51783  53.2176  41.6796 0001745  65.0117 298.7298 15.08849199 28256,6917.852,95.437,540.924,538.51,0.0
51783.0,STARLINK-3628,PAYLOAD,2022-08-20 22:00:00,15.08818,0.0001797,53.2177,40.5582,60.1655,222.2799,0.0032265999999999,0.00051407,0.0,0 STARLINK-3628,1 51783U 22017R   22232.91667824  .00051407  00000-0  32266-2 0  9998,2 51783  53.2177  40.5582 0001797  60.1655 222.2799 15.08818000  1300,6917.948,95.439,541.056,538.569,0.0
